{
  "type": "FeatureCollection",
  "metadata": {
    "measure_id": "M3",
    "source": "Overture Maps",
    "release": "2026-08-19.0",
    "source_file": "data1/overture/astana/roads_main.geojson",
    "source_url": "https://overturemaps.org/",
    "attribution": "© OpenStreetMap contributors, Overture Maps Foundation",
    "license": "ODbL-1.0",
    "feature_count": 31,
    "geometry_length_km": 48.247,
    "length_method": "Sum of all source LineString segments; haversine, mean Earth radius 6371.0088 km",
    "district_ids": [
      "esil",
      "saraishyk"
    ],
    "features_by_district": {
      "esil": 27,
      "saraishyk": 4
    },
    "coverage": "partial",
    "contains_stations": false,
    "warning_ru": "Частичные сегменты из существующей выгрузки Overture, а не полная трасса ЛРТ. Пробелы не соединены, координаты станций отсутствуют. Длина — сумма геометрий сегментов (возможны параллельные пути), а не официальная длина линии. Отсутствие сегментов в районе не означает отсутствия там ЛРТ. Слой служит географическим контекстом M3 и не меняет коэффициенты симуляции."
  },
  "features": [
    {
      "type": "Feature",
      "geometry": {
        "type": "LineString",
        "coordinates": [
          [
            71.4637524,
            51.0376269
          ],
          [
            71.4640292,
            51.0376688
          ],
          [
            71.4642095,
            51.0376998
          ],
          [
            71.4643983,
            51.0377511
          ],
          [
            71.4647144,
            51.0378663
          ]
        ]
      },
      "properties": {
        "id": "0b76d4e2-dede-412d-8e6e-6f55b0c2f4a3",
        "name": null,
        "class": "light_rail",
        "district_id": "esil",
        "measure_id": "M3"
      }
    },
    {
      "type": "Feature",
      "geometry": {
        "type": "LineString",
        "coordinates": [
          [
            71.4637151,
            51.0379276
          ],
          [
            71.4640737,
            51.0380165
          ],
          [
            71.4642378,
            51.0380683
          ],
          [
            71.46445,
            51.0381453
          ]
        ]
      },
      "properties": {
        "id": "0c758877-1fea-422c-a173-6834f1cb9252",
        "name": null,
        "class": "light_rail",
        "district_id": "esil",
        "measure_id": "M3"
      }
    },
    {
      "type": "Feature",
      "geometry": {
        "type": "LineString",
        "coordinates": [
          [
            71.4636435,
            51.0377214
          ],
          [
            71.4639799,
            51.0377727
          ],
          [
            71.4641558,
            51.0378037
          ],
          [
            71.4643082,
            51.0378442
          ],
          [
            71.4646281,
            51.0379573
          ]
        ]
      },
      "properties": {
        "id": "0d1e3f9e-d36b-4613-a26b-dadcf4cdd014",
        "name": null,
        "class": "light_rail",
        "district_id": "esil",
        "measure_id": "M3"
      }
    },
    {
      "type": "Feature",
      "geometry": {
        "type": "LineString",
        "coordinates": [
          [
            71.4601654,
            51.036601
          ],
          [
            71.4603739,
            51.0366562
          ],
          [
            71.4605978,
            51.0367156
          ]
        ]
      },
      "properties": {
        "id": "154390c3-faff-423d-b180-b3110387f4fe",
        "name": null,
        "class": "light_rail",
        "district_id": "esil",
        "measure_id": "M3"
      }
    },
    {
      "type": "Feature",
      "geometry": {
        "type": "LineString",
        "coordinates": [
          [
            71.4585618,
            51.0359444
          ],
          [
            71.4602093,
            51.0365684
          ],
          [
            71.4605978,
            51.0367156
          ],
          [
            71.4609242,
            51.0368392
          ],
          [
            71.4612684,
            51.0369696
          ],
          [
            71.4619671,
            51.0372343
          ],
          [
            71.4621109,
            51.0372815
          ],
          [
            71.4622504,
            51.037318
          ],
          [
            71.4624542,
            51.0373611
          ],
          [
            71.4626409,
            51.0373935
          ],
          [
            71.4631401,
            51.0374724
          ],
          [
            71.464203,
            51.0376404
          ],
          [
            71.4644047,
            51.0376863
          ],
          [
            71.4645893,
            51.0377416
          ],
          [
            71.4647673,
            51.0378104
          ]
        ]
      },
      "properties": {
        "id": "15746211-029d-474e-b619-df6eeb48fbe2",
        "name": null,
        "class": "light_rail",
        "district_id": "esil",
        "measure_id": "M3"
      }
    },
    {
      "type": "Feature",
      "geometry": {
        "type": "LineString",
        "coordinates": [
          [
            71.4636848,
            51.0379836
          ],
          [
            71.4639487,
            51.0381208
          ],
          [
            71.4640603,
            51.0381747
          ],
          [
            71.4643236,
            51.0382786
          ]
        ]
      },
      "properties": {
        "id": "32cf6c1d-3696-45ed-b1df-65d95d1d3857",
        "name": null,
        "class": "light_rail",
        "district_id": "esil",
        "measure_id": "M3"
      }
    },
    {
      "type": "Feature",
      "geometry": {
        "type": "LineString",
        "coordinates": [
          [
            71.4612684,
            51.0369696
          ],
          [
            71.4615757,
            51.037061
          ],
          [
            71.4616896,
            51.0370934
          ],
          [
            71.462022,
            51.0371878
          ],
          [
            71.4622108,
            51.0372283
          ],
          [
            71.4624082,
            51.037258
          ],
          [
            71.4626013,
            51.0372782
          ],
          [
            71.4627305,
            51.0372876
          ]
        ]
      },
      "properties": {
        "id": "3300868a-fb86-4377-93b2-8db6b772b96a",
        "name": null,
        "class": "light_rail",
        "district_id": "esil",
        "measure_id": "M3"
      }
    },
    {
      "type": "Feature",
      "geometry": {
        "type": "LineString",
        "coordinates": [
          [
            71.4631248,
            51.0377717
          ],
          [
            71.4636848,
            51.0379836
          ],
          [
            71.4643609,
            51.0382393
          ]
        ]
      },
      "properties": {
        "id": "3ff19c31-707d-4429-af22-e9dc97605397",
        "name": null,
        "class": "light_rail",
        "district_id": "esil",
        "measure_id": "M3"
      }
    },
    {
      "type": "Feature",
      "geometry": {
        "type": "LineString",
        "coordinates": [
          [
            71.4627299,
            51.0375635
          ],
          [
            71.4629762,
            51.037608
          ],
          [
            71.4636435,
            51.0377214
          ],
          [
            71.4638559,
            51.0377686
          ],
          [
            71.4641456,
            51.0378482
          ],
          [
            71.4645815,
            51.0380065
          ]
        ]
      },
      "properties": {
        "id": "42bbea10-0cb0-4db1-bdd7-59ffb0d1cdef",
        "name": null,
        "class": "light_rail",
        "district_id": "esil",
        "measure_id": "M3"
      }
    },
    {
      "type": "Feature",
      "geometry": {
        "type": "LineString",
        "coordinates": [
          [
            71.4646776,
            51.037905
          ],
          [
            71.4642867,
            51.0377673
          ],
          [
            71.4640464,
            51.0377011
          ],
          [
            71.4637524,
            51.0376269
          ],
          [
            71.4634777,
            51.037573
          ],
          [
            71.4625572,
            51.0374272
          ],
          [
            71.4623448,
            51.0373834
          ],
          [
            71.4622075,
            51.0373463
          ],
          [
            71.4620572,
            51.0373018
          ],
          [
            71.4618049,
            51.0372217
          ]
        ]
      },
      "properties": {
        "id": "4b675447-0a1c-49e9-b642-b5c1b9b93751",
        "name": null,
        "class": "light_rail",
        "district_id": "esil",
        "measure_id": "M3"
      }
    },
    {
      "type": "Feature",
      "geometry": {
        "type": "LineString",
        "coordinates": [
          [
            71.4608854,
            51.0368736
          ],
          [
            71.4610818,
            51.0369742
          ],
          [
            71.4612679,
            51.0370693
          ]
        ]
      },
      "properties": {
        "id": "5a819e2d-ed3d-4e6a-ba06-8f54df840aab",
        "name": null,
        "class": "light_rail",
        "district_id": "esil",
        "measure_id": "M3"
      }
    },
    {
      "type": "Feature",
      "geometry": {
        "type": "LineString",
        "coordinates": [
          [
            71.4593657,
            51.0363497
          ],
          [
            71.4599119,
            51.036505
          ]
        ]
      },
      "properties": {
        "id": "5a940371-ea1f-4fd5-bc67-bf810ec29eee",
        "name": null,
        "class": "light_rail",
        "district_id": "esil",
        "measure_id": "M3"
      }
    },
    {
      "type": "Feature",
      "geometry": {
        "type": "LineString",
        "coordinates": [
          [
            71.4638595,
            51.0378584
          ],
          [
            71.4641692,
            51.0379278
          ],
          [
            71.4643559,
            51.0379872
          ],
          [
            71.4645365,
            51.038054
          ]
        ]
      },
      "properties": {
        "id": "5b4518da-2881-44db-a848-7b07f81fe5ba",
        "name": null,
        "class": "light_rail",
        "district_id": "esil",
        "measure_id": "M3"
      }
    },
    {
      "type": "Feature",
      "geometry": {
        "type": "LineString",
        "coordinates": [
          [
            71.4586541,
            51.0360805
          ],
          [
            71.4593657,
            51.0363497
          ],
          [
            71.4604627,
            51.0367647
          ],
          [
            71.4608656,
            51.0369171
          ],
          [
            71.4612679,
            51.0370693
          ],
          [
            71.4631248,
            51.0377717
          ]
        ]
      },
      "properties": {
        "id": "5b5d78d4-f780-4a3b-85cc-2794640e431d",
        "name": null,
        "class": "light_rail",
        "district_id": "esil",
        "measure_id": "M3"
      }
    },
    {
      "type": "Feature",
      "geometry": {
        "type": "LineString",
        "coordinates": [
          [
            71.4609242,
            51.0368392
          ],
          [
            71.4613311,
            51.036953
          ],
          [
            71.4617151,
            51.0370461
          ],
          [
            71.4619984,
            51.0371015
          ],
          [
            71.4622301,
            51.0371298
          ],
          [
            71.4625091,
            51.0371568
          ],
          [
            71.4627484,
            51.0371709
          ]
        ]
      },
      "properties": {
        "id": "6977adcb-d736-4702-a672-a5b6bfba4620",
        "name": null,
        "class": "light_rail",
        "district_id": "esil",
        "measure_id": "M3"
      }
    },
    {
      "type": "Feature",
      "geometry": {
        "type": "LineString",
        "coordinates": [
          [
            71.4165204,
            51.1251555
          ],
          [
            71.4173456,
            51.1250276
          ]
        ]
      },
      "properties": {
        "id": "6ede7e5b-4dc9-407f-94a7-e3ec3305174e",
        "name": "Астана ЛРТ",
        "class": "light_rail",
        "district_id": "esil",
        "measure_id": "M3"
      }
    },
    {
      "type": "Feature",
      "geometry": {
        "type": "LineString",
        "coordinates": [
          [
            71.4608656,
            51.0369171
          ],
          [
            71.4610818,
            51.0369742
          ],
          [
            71.4613389,
            51.0370453
          ]
        ]
      },
      "properties": {
        "id": "7fb9bbdf-6f68-413e-b066-a295aa796fb3",
        "name": null,
        "class": "light_rail",
        "district_id": "esil",
        "measure_id": "M3"
      }
    },
    {
      "type": "Feature",
      "geometry": {
        "type": "LineString",
        "coordinates": [
          [
            71.4613311,
            51.036953
          ],
          [
            71.4616636,
            51.0370151
          ],
          [
            71.461992,
            51.037061
          ],
          [
            71.4622452,
            51.0370853
          ],
          [
            71.4625434,
            51.0371109
          ],
          [
            71.4627552,
            51.0371263
          ]
        ]
      },
      "properties": {
        "id": "88c06f0b-723a-4a89-927e-04358fe6958d",
        "name": null,
        "class": "light_rail",
        "district_id": "esil",
        "measure_id": "M3"
      }
    },
    {
      "type": "Feature",
      "geometry": {
        "type": "LineString",
        "coordinates": [
          [
            71.4131965,
            51.1225848
          ],
          [
            71.4132424,
            51.1237657
          ]
        ]
      },
      "properties": {
        "id": "930d036a-3b6d-4c58-833d-7da25d7ee8e0",
        "name": "Астана ЛРТ",
        "class": "light_rail",
        "district_id": "esil",
        "measure_id": "M3"
      }
    },
    {
      "type": "Feature",
      "geometry": {
        "type": "LineString",
        "coordinates": [
          [
            71.4542132,
            51.032238
          ],
          [
            71.4540386,
            51.032671
          ],
          [
            71.4539494,
            51.0329106
          ],
          [
            71.4538794,
            51.0331636
          ],
          [
            71.4538681,
            51.0333328
          ],
          [
            71.4538942,
            51.0335093
          ],
          [
            71.453932,
            51.033641
          ],
          [
            71.4539931,
            51.0337727
          ],
          [
            71.4540869,
            51.0339222
          ],
          [
            71.4541948,
            51.0340571
          ],
          [
            71.4543264,
            51.0341882
          ],
          [
            71.4544673,
            51.0343047
          ],
          [
            71.4546248,
            51.0344168
          ],
          [
            71.4547883,
            51.0345217
          ],
          [
            71.4549312,
            51.0345953
          ],
          [
            71.4586894,
            51.0360422
          ],
          [
            71.4599119,
            51.036505
          ],
          [
            71.4601654,
            51.036601
          ],
          [
            71.4605268,
            51.0367378
          ],
          [
            71.4608854,
            51.0368736
          ],
          [
            71.4613389,
            51.0370453
          ],
          [
            71.4618049,
            51.0372217
          ],
          [
            71.4625368,
            51.0374988
          ],
          [
            71.4627299,
            51.0375635
          ],
          [
            71.4629038,
            51.0376107
          ],
          [
            71.4638114,
            51.0378428
          ],
          [
            71.4638595,
            51.0378584
          ],
          [
            71.4640367,
            51.0379157
          ],
          [
            71.4645014,
            51.038091
          ]
        ]
      },
      "properties": {
        "id": "9da51230-f16e-4e7b-9f59-a8febf50be85",
        "name": "Астана ЛРТ",
        "class": "light_rail",
        "district_id": "esil",
        "measure_id": "M3"
      }
    },
    {
      "type": "Feature",
      "geometry": {
        "type": "LineString",
        "coordinates": [
          [
            71.4602093,
            51.0365684
          ],
          [
            71.4603739,
            51.0366562
          ],
          [
            71.4605268,
            51.0367378
          ]
        ]
      },
      "properties": {
        "id": "b3d27ccb-d3e3-4af9-aa5f-5f7ee891156d",
        "name": null,
        "class": "light_rail",
        "district_id": "esil",
        "measure_id": "M3"
      }
    },
    {
      "type": "Feature",
      "geometry": {
        "type": "LineString",
        "coordinates": [
          [
            71.4584534,
            51.0360644
          ],
          [
            71.4600527,
            51.0366675
          ],
          [
            71.4628867,
            51.0377363
          ],
          [
            71.4630464,
            51.0378003
          ],
          [
            71.4631784,
            51.037859
          ],
          [
            71.4636741,
            51.0381073
          ],
          [
            71.4638457,
            51.0381815
          ],
          [
            71.4642633,
            51.0383423
          ]
        ]
      },
      "properties": {
        "id": "c6b315b2-ecf4-4261-8946-e296e1473f3b",
        "name": null,
        "class": "light_rail",
        "district_id": "esil",
        "measure_id": "M3"
      }
    },
    {
      "type": "Feature",
      "geometry": {
        "type": "LineString",
        "coordinates": [
          [
            71.4631248,
            51.0377717
          ],
          [
            71.4636741,
            51.0379143
          ],
          [
            71.4637151,
            51.0379276
          ],
          [
            71.4638329,
            51.0379656
          ],
          [
            71.4644121,
            51.0381852
          ]
        ]
      },
      "properties": {
        "id": "d00990bb-0080-4376-bf00-e4bca7be74e4",
        "name": null,
        "class": "light_rail",
        "district_id": "esil",
        "measure_id": "M3"
      }
    },
    {
      "type": "Feature",
      "geometry": {
        "type": "LineString",
        "coordinates": [
          [
            71.4600527,
            51.0366675
          ],
          [
            71.4604627,
            51.0367647
          ]
        ]
      },
      "properties": {
        "id": "d07e54a2-7292-4ef7-9fa0-19de4c26bcdb",
        "name": null,
        "class": "light_rail",
        "district_id": "esil",
        "measure_id": "M3"
      }
    },
    {
      "type": "Feature",
      "geometry": {
        "type": "LineString",
        "coordinates": [
          [
            71.4616896,
            51.0370934
          ],
          [
            71.4619662,
            51.03715
          ],
          [
            71.4621615,
            51.0371838
          ],
          [
            71.462346,
            51.0372
          ],
          [
            71.4627392,
            51.0372308
          ]
        ]
      },
      "properties": {
        "id": "da5434c3-20a1-4656-8c7f-59b98ec87111",
        "name": null,
        "class": "light_rail",
        "district_id": "esil",
        "measure_id": "M3"
      }
    },
    {
      "type": "Feature",
      "geometry": {
        "type": "LineString",
        "coordinates": [
          [
            71.4586541,
            51.0360805
          ],
          [
            71.4549325,
            51.0346534
          ],
          [
            71.4547769,
            51.0345954
          ],
          [
            71.4545429,
            51.0345267
          ],
          [
            71.4542271,
            51.0344643
          ],
          [
            71.4539007,
            51.0344277
          ],
          [
            71.4536911,
            51.0344153
          ],
          [
            71.4534744,
            51.0344146
          ],
          [
            71.453138,
            51.0344409
          ],
          [
            71.4528039,
            51.0344923
          ],
          [
            71.4526194,
            51.0345277
          ],
          [
            71.4524699,
            51.0345763
          ],
          [
            71.4521101,
            51.034711
          ],
          [
            71.4517891,
            51.0348693
          ],
          [
            71.451434,
            51.0350597
          ],
          [
            71.4511218,
            51.0352602
          ],
          [
            71.4507726,
            51.0354609
          ]
        ]
      },
      "properties": {
        "id": "ef413b61-5612-4d68-953a-a9179f343123",
        "name": "Tarlan Astana",
        "class": "light_rail",
        "district_id": "esil",
        "measure_id": "M3"
      }
    },
    {
      "type": "Feature",
      "geometry": {
        "type": "LineString",
        "coordinates": [
          [
            71.4631401,
            51.0374724
          ],
          [
            71.4634262,
            51.0375001
          ],
          [
            71.4640292,
            51.0375595
          ],
          [
            71.4642137,
            51.0375892
          ],
          [
            71.4644004,
            51.037635
          ],
          [
            71.464615,
            51.0376971
          ],
          [
            71.4648076,
            51.0377679
          ]
        ]
      },
      "properties": {
        "id": "f4fc4e55-1050-4154-88bd-8cbc43c0b89c",
        "name": null,
        "class": "light_rail",
        "district_id": "esil",
        "measure_id": "M3"
      }
    },
    {
      "type": "Feature",
      "geometry": {
        "type": "LineString",
        "coordinates": [
          [
            71.4794728,
            51.115293
          ],
          [
            71.4778233,
            51.1155338
          ],
          [
            71.4737356,
            51.1161702
          ],
          [
            71.4722094,
            51.1164329
          ]
        ]
      },
      "properties": {
        "id": "118be0e3-4f98-4f36-ab10-222b222f904b",
        "name": null,
        "class": "light_rail",
        "district_id": "saraishyk",
        "measure_id": "M3"
      }
    },
    {
      "type": "Feature",
      "geometry": {
        "type": "LineString",
        "coordinates": [
          [
            71.5297508,
            51.1143136
          ],
          [
            71.5291842,
            51.1128775
          ],
          [
            71.5288215,
            51.1119847
          ],
          [
            71.5278258,
            51.1094856
          ],
          [
            71.5276977,
            51.1092517
          ],
          [
            71.5275761,
            51.1090517
          ],
          [
            71.5274428,
            51.1089005
          ],
          [
            71.5273,
            51.1087661
          ],
          [
            71.5271043,
            51.1086348
          ],
          [
            71.5267898,
            51.1084653
          ],
          [
            71.5265218,
            51.1083617
          ],
          [
            71.5262139,
            51.1082712
          ],
          [
            71.5258954,
            51.1082036
          ],
          [
            71.5254473,
            51.1081658
          ],
          [
            71.5250368,
            51.1081686
          ],
          [
            71.5246462,
            51.1082124
          ],
          [
            71.5242637,
            51.108274
          ],
          [
            71.5160788,
            51.1094848
          ],
          [
            71.5091646,
            51.1106432
          ],
          [
            71.5015048,
            51.1118504
          ],
          [
            71.4983048,
            51.1123529
          ],
          [
            71.4973711,
            51.1125038
          ],
          [
            71.4938956,
            51.1130465
          ],
          [
            71.4842542,
            51.1145595
          ],
          [
            71.4812101,
            51.1150219
          ],
          [
            71.4794728,
            51.115293
          ],
          [
            71.477834,
            51.1155607
          ],
          [
            71.4755143,
            51.1159347
          ],
          [
            71.4737597,
            51.1162056
          ],
          [
            71.4722094,
            51.1164329
          ],
          [
            71.4683911,
            51.117033
          ],
          [
            71.4672852,
            51.1171958
          ],
          [
            71.4592557,
            51.1184561
          ],
          [
            71.4544263,
            51.1192233
          ],
          [
            71.4536765,
            51.1193394
          ],
          [
            71.4528732,
            51.1194657
          ],
          [
            71.4524831,
            51.1195376
          ],
          [
            71.4520522,
            51.1196291
          ],
          [
            71.4516751,
            51.1197294
          ],
          [
            71.4500679,
            51.1202011
          ],
          [
            71.4496916,
            51.1203081
          ],
          [
            71.4492834,
            51.1204066
          ],
          [
            71.4489468,
            51.1204758
          ],
          [
            71.4486235,
            51.1205344
          ],
          [
            71.4476506,
            51.1206778
          ],
          [
            71.447156,
            51.1207631
          ],
          [
            71.4449877,
            51.1211218
          ],
          [
            71.4434281,
            51.1213584
          ],
          [
            71.4408996,
            51.1217126
          ],
          [
            71.4398859,
            51.1218413
          ],
          [
            71.438184,
            51.1220464
          ],
          [
            71.4374703,
            51.1221535
          ],
          [
            71.436779,
            51.1222675
          ],
          [
            71.4353105,
            51.1225575
          ],
          [
            71.4349366,
            51.1226118
          ],
          [
            71.434612,
            51.122632
          ],
          [
            71.4342776,
            51.1226463
          ],
          [
            71.4338149,
            51.1226614
          ],
          [
            71.4329436,
            51.1226908
          ],
          [
            71.4326455,
            51.1227074
          ],
          [
            71.4324366,
            51.1227261
          ],
          [
            71.4322234,
            51.122753
          ],
          [
            71.4318983,
            51.1228032
          ],
          [
            71.4308396,
            51.1229581
          ],
          [
            71.4299027,
            51.1230805
          ],
          [
            71.4295966,
            51.1231146
          ],
          [
            71.428798,
            51.1232327
          ],
          [
            71.4279004,
            51.1233658
          ],
          [
            71.4257596,
            51.1237597
          ],
          [
            71.4239782,
            51.1240285
          ],
          [
            71.420804,
            51.1245361
          ],
          [
            71.4190934,
            51.1247896
          ],
          [
            71.4182782,
            51.1248777
          ],
          [
            71.4173456,
            51.1250276
          ],
          [
            71.4164892,
            51.1250865
          ],
          [
            71.416141,
            51.1251025
          ],
          [
            71.4156721,
            51.1250857
          ],
          [
            71.4152549,
            51.125025
          ],
          [
            71.4148646,
            51.1249231
          ],
          [
            71.4144639,
            51.1247682
          ],
          [
            71.414181,
            51.1246108
          ],
          [
            71.413888,
            51.1244004
          ],
          [
            71.4137089,
            51.1242151
          ],
          [
            71.413569,
            51.124033
          ],
          [
            71.4134315,
            51.1237431
          ],
          [
            71.4133588,
            51.1234745
          ],
          [
            71.4131965,
            51.1225848
          ],
          [
            71.4131655,
            51.122399
          ],
          [
            71.4131013,
            51.1220408
          ],
          [
            71.4130227,
            51.1215834
          ],
          [
            71.4127207,
            51.1200124
          ],
          [
            71.4124975,
            51.1187465
          ],
          [
            71.412345,
            51.1178324
          ],
          [
            71.4122845,
            51.1175692
          ],
          [
            71.4122182,
            51.1172994
          ],
          [
            71.4119549,
            51.1163633
          ],
          [
            71.4116774,
            51.1151708
          ],
          [
            71.4115699,
            51.1145584
          ],
          [
            71.4113898,
            51.1136221
          ],
          [
            71.4113184,
            51.1132775
          ],
          [
            71.4112718,
            51.1129317
          ],
          [
            71.4112143,
            51.1126667
          ],
          [
            71.4110943,
            51.1121167
          ],
          [
            71.4109517,
            51.1116167
          ],
          [
            71.4105764,
            51.1105958
          ],
          [
            71.4096859,
            51.1080766
          ],
          [
            71.4091354,
            51.1065667
          ],
          [
            71.4089944,
            51.106158
          ],
          [
            71.4088397,
            51.1057101
          ],
          [
            71.4084075,
            51.1045068
          ],
          [
            71.4077814,
            51.1028076
          ],
          [
            71.4076597,
            51.1024745
          ],
          [
            71.4072998,
            51.1014545
          ],
          [
            71.4067882,
            51.0999568
          ],
          [
            71.4061818,
            51.0982857
          ],
          [
            71.4060824,
            51.0980057
          ],
          [
            71.405988,
            51.0977391
          ],
          [
            71.405914,
            51.0975354
          ],
          [
            71.4058159,
            51.0972662
          ],
          [
            71.4057376,
            51.0970549
          ],
          [
            71.405637,
            51.096793
          ],
          [
            71.4055443,
            51.0965301
          ],
          [
            71.4054561,
            51.0962686
          ],
          [
            71.4053564,
            51.0959948
          ],
          [
            71.4052718,
            51.095737
          ],
          [
            71.4051713,
            51.0954609
          ],
          [
            71.4050786,
            51.0952081
          ],
          [
            71.4049771,
            51.0949203
          ],
          [
            71.4048618,
            51.0945944
          ],
          [
            71.4047629,
            51.094319
          ],
          [
            71.4046826,
            51.094101
          ],
          [
            71.4045534,
            51.09374
          ],
          [
            71.4044602,
            51.093483
          ],
          [
            71.4043697,
            51.0932263
          ],
          [
            71.4042715,
            51.0929596
          ],
          [
            71.4041768,
            51.0926934
          ],
          [
            71.4040836,
            51.0924194
          ],
          [
            71.4039909,
            51.0921578
          ],
          [
            71.4038956,
            51.0919033
          ],
          [
            71.4037992,
            51.091637
          ],
          [
            71.4037161,
            51.0914122
          ],
          [
            71.4036338,
            51.0911887
          ],
          [
            71.4035553,
            51.0909781
          ],
          [
            71.4034634,
            51.0907183
          ],
          [
            71.4033361,
            51.090339
          ],
          [
            71.4032337,
            51.090051
          ],
          [
            71.4029898,
            51.0894035
          ],
          [
            71.4027656,
            51.0887792
          ],
          [
            71.4025653,
            51.088225
          ],
          [
            71.4024113,
            51.0877579
          ],
          [
            71.4022717,
            51.0873845
          ],
          [
            71.4021719,
            51.0871027
          ],
          [
            71.4020724,
            51.0868301
          ],
          [
            71.401986,
            51.0865875
          ],
          [
            71.4018298,
            51.0861357
          ],
          [
            71.4017307,
            51.0858703
          ],
          [
            71.4016514,
            51.0856486
          ],
          [
            71.4015724,
            51.0854128
          ],
          [
            71.4014801,
            51.0851392
          ],
          [
            71.4013891,
            51.0848843
          ],
          [
            71.4012823,
            51.0846082
          ],
          [
            71.4011852,
            51.0843596
          ],
          [
            71.4010961,
            51.0840929
          ],
          [
            71.4010035,
            51.08384
          ],
          [
            71.4009091,
            51.0835711
          ],
          [
            71.4008172,
            51.0833061
          ],
          [
            71.4007238,
            51.0830448
          ],
          [
            71.4005982,
            51.0827159
          ],
          [
            71.400011,
            51.0810942
          ],
          [
            71.3996503,
            51.0801107
          ],
          [
            71.3993393,
            51.0794172
          ],
          [
            71.3987331,
            51.0776006
          ],
          [
            71.3982637,
            51.0763509
          ],
          [
            71.3981186,
            51.0757651
          ],
          [
            71.3979011,
            51.0751252
          ],
          [
            71.3977759,
            51.0747763
          ],
          [
            71.3976323,
            51.0743876
          ],
          [
            71.3975515,
            51.0741486
          ],
          [
            71.3974424,
            51.0738299
          ],
          [
            71.3973674,
            51.0735342
          ],
          [
            71.3973133,
            51.0732411
          ],
          [
            71.3972974,
            51.0729424
          ],
          [
            71.3973177,
            51.0726564
          ],
          [
            71.3973751,
            51.0723609
          ],
          [
            71.3974632,
            51.0720602
          ],
          [
            71.3980981,
            51.0706223
          ],
          [
            71.3987565,
            51.0691513
          ],
          [
            71.3989553,
            51.0686931
          ],
          [
            71.3991186,
            51.0684176
          ],
          [
            71.3993426,
            51.0681368
          ],
          [
            71.3996193,
            51.0678519
          ],
          [
            71.3996896,
            51.067782
          ],
          [
            71.3998715,
            51.0676009
          ],
          [
            71.4000145,
            51.0674635
          ],
          [
            71.4001411,
            51.0673532
          ],
          [
            71.4004326,
            51.0671357
          ],
          [
            71.4014831,
            51.0664589
          ],
          [
            71.4053904,
            51.0640299
          ],
          [
            71.4077438,
            51.0626042
          ],
          [
            71.4081499,
            51.0623559
          ],
          [
            71.4093172,
            51.0616424
          ],
          [
            71.409647,
            51.0614402
          ],
          [
            71.4099768,
            51.0612381
          ],
          [
            71.4102727,
            51.0610567
          ],
          [
            71.4111162,
            51.0605395
          ],
          [
            71.4137506,
            51.0589105
          ],
          [
            71.4167282,
            51.0570516
          ],
          [
            71.41868,
            51.0558907
          ],
          [
            71.4195605,
            51.0553267
          ],
          [
            71.4200223,
            51.0550552
          ],
          [
            71.4208707,
            51.0545405
          ],
          [
            71.424188,
            51.0524822
          ],
          [
            71.4267307,
            51.0509016
          ],
          [
            71.4291731,
            51.0494125
          ],
          [
            71.4294713,
            51.049239
          ],
          [
            71.4295839,
            51.0491678
          ],
          [
            71.4298386,
            51.0490174
          ],
          [
            71.4303252,
            51.0486979
          ],
          [
            71.4308029,
            51.0483938
          ],
          [
            71.4314388,
            51.0480009
          ],
          [
            71.4318282,
            51.0477656
          ],
          [
            71.4320909,
            51.0476117
          ],
          [
            71.4322111,
            51.0475339
          ],
          [
            71.4323977,
            51.0474163
          ],
          [
            71.4326986,
            51.0472263
          ],
          [
            71.4329913,
            51.0470498
          ],
          [
            71.4335857,
            51.0466764
          ],
          [
            71.4345199,
            51.0461124
          ],
          [
            71.4348627,
            51.0459064
          ],
          [
            71.437115,
            51.0444926
          ],
          [
            71.4378891,
            51.0440282
          ],
          [
            71.4381965,
            51.0438316
          ],
          [
            71.4384844,
            51.0436572
          ],
          [
            71.4388113,
            51.0434604
          ],
          [
            71.4391038,
            51.0432817
          ],
          [
            71.4396906,
            51.0428998
          ],
          [
            71.4421814,
            51.041298
          ],
          [
            71.4431037,
            51.0407265
          ],
          [
            71.4435532,
            51.0404527
          ],
          [
            71.4438404,
            51.0402736
          ],
          [
            71.4441732,
            51.0400686
          ],
          [
            71.4444631,
            51.0398835
          ],
          [
            71.4447744,
            51.0396917
          ],
          [
            71.4450747,
            51.0395084
          ],
          [
            71.4453734,
            51.0393219
          ],
          [
            71.445689,
            51.0391335
          ],
          [
            71.4462946,
            51.0387556
          ],
          [
            71.4466005,
            51.0385664
          ],
          [
            71.4468894,
            51.0383809
          ],
          [
            71.4471984,
            51.0381721
          ],
          [
            71.4474726,
            51.0379855
          ],
          [
            71.4477629,
            51.0377665
          ],
          [
            71.4480038,
            51.0375679
          ],
          [
            71.4482535,
            51.0373507
          ],
          [
            71.4484962,
            51.037136
          ],
          [
            71.4487331,
            51.036922
          ],
          [
            71.4489909,
            51.0366963
          ],
          [
            71.4492655,
            51.0364736
          ],
          [
            71.449534,
            51.0362743
          ],
          [
            71.4498247,
            51.0360634
          ],
          [
            71.4500983,
            51.0358686
          ],
          [
            71.450399,
            51.0356589
          ],
          [
            71.4506599,
            51.0354778
          ],
          [
            71.4509066,
            51.0353066
          ],
          [
            71.4511017,
            51.0351632
          ],
          [
            71.4513628,
            51.0349799
          ],
          [
            71.4517173,
            51.0347388
          ],
          [
            71.4522981,
            51.0343232
          ],
          [
            71.4527222,
            51.0340183
          ],
          [
            71.4529729,
            51.0338129
          ],
          [
            71.4531746,
            51.033619
          ],
          [
            71.4533621,
            51.0333778
          ],
          [
            71.4538956,
            51.0325979
          ],
          [
            71.4541354,
            51.0322346
          ],
          [
            71.4542754,
            51.0320129
          ],
          [
            71.4544204,
            51.0317927
          ],
          [
            71.454552,
            51.0316052
          ],
          [
            71.4547012,
            51.0313819
          ],
          [
            71.4548771,
            51.0311262
          ],
          [
            71.4550417,
            51.0308742
          ],
          [
            71.4552341,
            51.0306059
          ],
          [
            71.4553833,
            51.0303725
          ],
          [
            71.455547,
            51.0301344
          ],
          [
            71.4556513,
            51.0300117
          ],
          [
            71.4557762,
            51.0298958
          ],
          [
            71.4559063,
            51.0297857
          ],
          [
            71.4560317,
            51.0296883
          ],
          [
            71.4562968,
            51.0295172
          ],
          [
            71.4564302,
            51.029432
          ],
          [
            71.4565839,
            51.0293398
          ],
          [
            71.4566511,
            51.0292891
          ],
          [
            71.456869,
            51.0291596
          ],
          [
            71.4571504,
            51.0289861
          ],
          [
            71.4573905,
            51.0288062
          ],
          [
            71.4578435,
            51.0284924
          ],
          [
            71.4587055,
            51.0279459
          ],
          [
            71.4593152,
            51.0275607
          ]
        ]
      },
      "properties": {
        "id": "47483ec8-f707-4920-afc9-904f781f3643",
        "name": "Tarlan Astana",
        "class": "light_rail",
        "district_id": "saraishyk",
        "measure_id": "M3"
      }
    },
    {
      "type": "Feature",
      "geometry": {
        "type": "LineString",
        "coordinates": [
          [
            71.4594528,
            51.0276624
          ],
          [
            71.4588413,
            51.0280352
          ],
          [
            71.4579937,
            51.0285834
          ],
          [
            71.457479,
            51.0288672
          ],
          [
            71.457185,
            51.0290111
          ],
          [
            71.4569101,
            51.0291907
          ],
          [
            71.4566311,
            51.0293695
          ],
          [
            71.4563361,
            51.0295517
          ],
          [
            71.4560786,
            51.029717
          ],
          [
            71.4559498,
            51.0298132
          ],
          [
            71.4558318,
            51.0299144
          ],
          [
            71.4557058,
            51.0300274
          ],
          [
            71.4556038,
            51.0301573
          ],
          [
            71.4554617,
            51.0303867
          ],
          [
            71.4553007,
            51.0306246
          ],
          [
            71.455113,
            51.0308979
          ],
          [
            71.4549386,
            51.0311458
          ],
          [
            71.4547616,
            51.0314056
          ],
          [
            71.4546221,
            51.0316097
          ],
          [
            71.4544961,
            51.0318104
          ],
          [
            71.4543432,
            51.0320398
          ],
          [
            71.4542132,
            51.032238
          ],
          [
            71.4539677,
            51.032615
          ],
          [
            71.4534245,
            51.0333985
          ],
          [
            71.4532247,
            51.0336347
          ],
          [
            71.4530269,
            51.0338384
          ],
          [
            71.452754,
            51.0340564
          ],
          [
            71.4523517,
            51.0343439
          ],
          [
            71.4517656,
            51.0347639
          ],
          [
            71.4514008,
            51.035022
          ],
          [
            71.4507726,
            51.0354609
          ],
          [
            71.4504513,
            51.0356975
          ],
          [
            71.4501509,
            51.0359041
          ],
          [
            71.449876,
            51.0360998
          ],
          [
            71.4495836,
            51.0363047
          ],
          [
            71.4493221,
            51.0365037
          ],
          [
            71.4490512,
            51.0367222
          ],
          [
            71.4487937,
            51.0369473
          ],
          [
            71.4485496,
            51.0371582
          ],
          [
            71.4482895,
            51.0373816
          ],
          [
            71.4480454,
            51.0375908
          ],
          [
            71.4478067,
            51.0377965
          ],
          [
            71.4475143,
            51.0380175
          ],
          [
            71.4472353,
            51.0382114
          ],
          [
            71.4469242,
            51.0384189
          ],
          [
            71.4466292,
            51.0385993
          ],
          [
            71.4463341,
            51.0387815
          ],
          [
            71.4457226,
            51.0391593
          ],
          [
            71.4454088,
            51.0393549
          ],
          [
            71.4451137,
            51.0395421
          ],
          [
            71.4448079,
            51.0397226
          ],
          [
            71.4445075,
            51.0399098
          ],
          [
            71.4442152,
            51.0400953
          ],
          [
            71.4438826,
            51.0403044
          ],
          [
            71.4435956,
            51.0404815
          ],
          [
            71.4431503,
            51.0407564
          ],
          [
            71.442221,
            51.0413264
          ],
          [
            71.4397278,
            51.0429311
          ],
          [
            71.4391512,
            51.0433114
          ],
          [
            71.4388481,
            51.0434969
          ],
          [
            71.4385356,
            51.0436857
          ],
          [
            71.4382419,
            51.0438628
          ],
          [
            71.4379281,
            51.0440525
          ],
          [
            71.4371583,
            51.0445289
          ],
          [
            71.4349133,
            51.0459336
          ],
          [
            71.4345539,
            51.0461512
          ],
          [
            71.4336365,
            51.0467093
          ],
          [
            71.4330384,
            51.0470803
          ],
          [
            71.4327434,
            51.0472574
          ],
          [
            71.4324456,
            51.0474479
          ],
          [
            71.4321426,
            51.0476418
          ],
          [
            71.431472,
            51.0480356
          ],
          [
            71.4308417,
            51.0484276
          ],
          [
            71.4298788,
            51.0490439
          ],
          [
            71.4292096,
            51.0494372
          ],
          [
            71.4282654,
            51.0500219
          ],
          [
            71.4267835,
            51.0509341
          ],
          [
            71.424222,
            51.0525156
          ],
          [
            71.4209175,
            51.0545684
          ],
          [
            71.4200632,
            51.0550809
          ],
          [
            71.4196032,
            51.0553557
          ],
          [
            71.4187221,
            51.0559239
          ],
          [
            71.4103174,
            51.0611348
          ],
          [
            71.4015627,
            51.0665171
          ],
          [
            71.4005113,
            51.0671828
          ],
          [
            71.4002216,
            51.0673851
          ],
          [
            71.3999587,
            51.0676278
          ],
          [
            71.3997066,
            51.0678638
          ],
          [
            71.3994437,
            51.068147
          ],
          [
            71.3992023,
            51.0684234
          ],
          [
            71.3990387,
            51.0687032
          ],
          [
            71.3988215,
            51.0691599
          ],
          [
            71.3981657,
            51.0706305
          ],
          [
            71.3975286,
            51.0720656
          ],
          [
            71.3974361,
            51.0723622
          ],
          [
            71.3973798,
            51.072663
          ],
          [
            71.3973623,
            51.072947
          ],
          [
            71.3973811,
            51.0732428
          ],
          [
            71.3974401,
            51.0735385
          ],
          [
            71.3975072,
            51.0738318
          ],
          [
            71.3976172,
            51.0741553
          ],
          [
            71.3977184,
            51.0744575
          ],
          [
            71.3979553,
            51.0751317
          ],
          [
            71.3981831,
            51.0757563
          ],
          [
            71.3984594,
            51.0763984
          ],
          [
            71.3985988,
            51.0767422
          ],
          [
            71.3988858,
            51.077551
          ],
          [
            71.3995349,
            51.0793811
          ],
          [
            71.3997281,
            51.0801006
          ],
          [
            71.4000617,
            51.0810867
          ],
          [
            71.4006709,
            51.082709
          ],
          [
            71.4016297,
            51.0854099
          ],
          [
            71.4020529,
            51.0865804
          ],
          [
            71.4028183,
            51.0887753
          ],
          [
            71.4032994,
            51.0900451
          ],
          [
            71.4036226,
            51.090978
          ],
          [
            71.4048296,
            51.0943135
          ],
          [
            71.406849,
            51.0999513
          ],
          [
            71.4073599,
            51.1014456
          ],
          [
            71.4077242,
            51.1024664
          ],
          [
            71.4090568,
            51.1061501
          ],
          [
            71.4097461,
            51.1080682
          ],
          [
            71.41065,
            51.1105833
          ],
          [
            71.4110135,
            51.1116155
          ],
          [
            71.4111516,
            51.1121144
          ],
          [
            71.4112777,
            51.1126654
          ],
          [
            71.41133,
            51.1129306
          ],
          [
            71.4113903,
            51.1132758
          ],
          [
            71.4114547,
            51.1136244
          ],
          [
            71.4116216,
            51.1145576
          ],
          [
            71.4117444,
            51.1151768
          ],
          [
            71.4120206,
            51.1163605
          ],
          [
            71.4122862,
            51.117295
          ],
          [
            71.4123452,
            51.1175559
          ],
          [
            71.4124015,
            51.1178253
          ],
          [
            71.4125624,
            51.1187497
          ],
          [
            71.4127904,
            51.1200073
          ],
          [
            71.4130855,
            51.1216303
          ],
          [
            71.4131539,
            51.122036
          ],
          [
            71.4132223,
            51.122398
          ],
          [
            71.4134234,
            51.1234771
          ],
          [
            71.4134985,
            51.1237414
          ],
          [
            71.4136434,
            51.1240293
          ],
          [
            71.4137641,
            51.1241942
          ],
          [
            71.4139625,
            51.1243878
          ],
          [
            71.4142334,
            51.1245814
          ],
          [
            71.414507,
            51.1247279
          ],
          [
            71.4148879,
            51.1248828
          ],
          [
            71.4152741,
            51.1249804
          ],
          [
            71.4156738,
            51.1250376
          ],
          [
            71.4161593,
            51.1250545
          ],
          [
            71.4164945,
            51.1250461
          ],
          [
            71.4173207,
            51.1249686
          ],
          [
            71.4178678,
            51.1248929
          ],
          [
            71.4182675,
            51.1248323
          ],
          [
            71.4190802,
            51.1247481
          ],
          [
            71.4207861,
            51.1245006
          ],
          [
            71.4239591,
            51.1239872
          ],
          [
            71.4257482,
            51.1237145
          ],
          [
            71.4278892,
            51.1233337
          ],
          [
            71.4287838,
            51.1231985
          ],
          [
            71.4296016,
            51.1230732
          ],
          [
            71.4298983,
            51.1230453
          ],
          [
            71.4318877,
            51.1227667
          ],
          [
            71.4322096,
            51.122722
          ],
          [
            71.4324255,
            51.1226934
          ],
          [
            71.4326374,
            51.1226732
          ],
          [
            71.4329365,
            51.1226547
          ],
          [
            71.4338069,
            51.1226261
          ],
          [
            71.4342695,
            51.1226101
          ],
          [
            71.4346102,
            51.1225949
          ],
          [
            71.4349213,
            51.1225773
          ],
          [
            71.4352998,
            51.1225215
          ],
          [
            71.4367612,
            51.1222237
          ],
          [
            71.4374549,
            51.1221171
          ],
          [
            71.4381693,
            51.1220062
          ],
          [
            71.4408758,
            51.1216774
          ],
          [
            71.4434132,
            51.1213222
          ],
          [
            71.4449716,
            51.1210697
          ],
          [
            71.4471468,
            51.1207136
          ],
          [
            71.4476377,
            51.120637
          ],
          [
            71.4486113,
            51.1204972
          ],
          [
            71.4489225,
            51.1204375
          ],
          [
            71.4492671,
            51.120371
          ],
          [
            71.4496668,
            51.1202683
          ],
          [
            71.4500329,
            51.1201639
          ],
          [
            71.4516462,
            51.1196916
          ],
          [
            71.4520271,
            51.1195965
          ],
          [
            71.4524536,
            51.1194972
          ],
          [
            71.4528559,
            51.1194231
          ],
          [
            71.4536566,
            51.1193019
          ],
          [
            71.4544103,
            51.1191857
          ],
          [
            71.4592382,
            51.1184197
          ],
          [
            71.4672728,
            51.1171569
          ],
          [
            71.4683765,
            51.1169835
          ],
          [
            71.4721987,
            51.1163891
          ],
          [
            71.4737302,
            51.1161315
          ],
          [
            71.4754951,
            51.1158554
          ],
          [
            71.4778072,
            51.1154883
          ],
          [
            71.4794674,
            51.115256
          ],
          [
            71.4811935,
            51.1149815
          ],
          [
            71.4842391,
            51.1145201
          ],
          [
            71.493879,
            51.1130081
          ],
          [
            71.4973538,
            51.11246
          ],
          [
            71.4982885,
            51.1123135
          ],
          [
            71.5014964,
            51.1118125
          ],
          [
            71.5091595,
            51.1106085
          ],
          [
            71.5160632,
            51.1094427
          ],
          [
            71.5242483,
            51.1082299
          ],
          [
            71.5246265,
            51.1081735
          ],
          [
            71.5250315,
            51.1081288
          ],
          [
            71.5254358,
            51.1081283
          ],
          [
            71.5257479,
            51.1081506
          ],
          [
            71.5261411,
            51.1082208
          ],
          [
            71.5265625,
            51.1083447
          ],
          [
            71.5268455,
            51.1084404
          ],
          [
            71.5271378,
            51.1086108
          ],
          [
            71.5273339,
            51.1087451
          ],
          [
            71.5274988,
            51.10889
          ],
          [
            71.5276313,
            51.1090505
          ],
          [
            71.527745,
            51.1092373
          ],
          [
            71.5278848,
            51.1094841
          ],
          [
            71.5288807,
            51.1119758
          ],
          [
            71.5291556,
            51.1126773
          ],
          [
            71.5298069,
            51.1143083
          ]
        ]
      },
      "properties": {
        "id": "7c17739e-bd17-403c-aab6-13ec32b270f4",
        "name": "Tarlan Astana",
        "class": "light_rail",
        "district_id": "saraishyk",
        "measure_id": "M3"
      }
    },
    {
      "type": "Feature",
      "geometry": {
        "type": "LineString",
        "coordinates": [
          [
            71.5291556,
            51.1126773
          ],
          [
            71.5291842,
            51.1128775
          ]
        ]
      },
      "properties": {
        "id": "c26b60ed-014c-4a3a-848b-39e0cff6d94f",
        "name": null,
        "class": "light_rail",
        "district_id": "saraishyk",
        "measure_id": "M3"
      }
    }
  ],
  "bbox": [
    71.3972974,
    51.0275607,
    71.5298069,
    51.1251555
  ]
}
